STARLINK-34943          
1 65366U 25190R   25274.27531199  .00138042  00000+0  33957-2 0  9996
2 65366  53.1593 190.3808 0000365  72.0450 288.0595 15.39648568  4854
STARLINK-34946          
1 65367U 25190S   25274.25003472 -.01577440  00000+0 -38204-1 0  9994
2 65367  53.1594 189.9484 0001082  79.1612  57.1500 15.43749551  5834
STARLINK-34259          
1 65368U 25190T   25274.27066604  .00134794  00000+0  33158-2 0  9995
2 65368  53.1584 190.3498 0001330  73.5979 286.5173 15.39664081  5322
STARLINK-34913          
1 65369U 25190U   25274.26602495  .00144295  00000+0  35452-2 0  9995
2 65369  53.1587 190.3210 0001022  59.5577 300.5529 15.39656685  5327
STARLINK-34870          
1 65370U 25190V   25274.15477188  .00083632  00000+0  20766-2 0  9993
2 65370  53.1602 191.0496 0001189 111.8031 248.3101 15.39639205  4831
STARLINK-34869          
1 65371U 25190W   25274.25003472  .00046819  00000+0  11755-2 0  9990
2 65371  53.1587 190.3456 0001339  74.1434 223.0781 15.39561478  4905
STARLINK-34903          
1 65372U 25190X   25274.18253349  .00083503  00000+0  20752-2 0  9991
2 65372  53.1593 190.5010 0001339  78.8462 281.2694 15.39613191  5318
STARLINK-34891          
1 65373U 25190Y   25274.25003472 -.01440357  00000+0 -37163-1 0  9990
2 65373  53.1593 189.8263 0001116  94.7610  99.7052 15.41596990  4842
STARLINK-34900          
1 65374U 25190Z   25274.25003472  .00120718  00000+0  29919-2 0  9995
2 65374  53.1590 190.2372 0000717 103.4857 245.2686 15.39502353  4842
STARLINK-34305          
1 65375U 25190AA  25274.25003472 -.00024282  00000+0 -59923-3 0  9996
2 65375  53.1594 189.8742 0001368  93.2513  77.5834 15.39607522  5846
STARLINK-34249          
1 65376U 25190AB  25274.25003472 -.01575014  00000+0 -38245-1 0  9994
2 65376  53.1581 189.7883 0001262  93.9824 119.9311 15.43666188  5842
STARLINK-34879          
1 65377U 25190AC  25274.17789029  .00130650  00000+0  32199-2 0  9998
2 65377  53.1602 190.4733 0001147 102.3468 257.7665 15.39626128  5311
STARLINK-34912          
1 65378U 25190AD  25274.23815208  .00134573  00000+0  33091-2 0  9995
2 65378  53.1594 190.1354 0001167  52.3258 307.7852 15.39676933  5325
STARLINK-34985          
1 65379U 25191A   25274.09371231  .00096671  00000+0  24499-2 0  9992
2 65379  97.6029 143.4152 0001552  75.8422 284.2996 15.39340526  6202
STARLINK-35051          
1 65380U 25191B   25274.12657392  .00073326  00000+0  18644-2 0  9990
2 65380  97.6025 143.5262 0002394 153.3512 206.7856 15.39340872  6220
STARLINK-35028          
1 65381U 25191C   25274.25003472  .00059240  00000+0  15116-2 0  9999
2 65381  97.6037 143.6962 0001898 110.0080 303.8117 15.39297241  6073
