[{"OBJECT_NAME":"STARLINK-34943","OBJECT_ID":"2025-190R","EPOCH":"2025-10-01T06:36:26.955936","MEAN_MOTION":15.39648568,"ECCENTRICITY":3.65e-5,"INCLINATION":53.1593,"RA_OF_ASC_NODE":190.3808,"ARG_OF_PERICENTER":72.045,"MEAN_ANOMALY":288.0595,"EPHEMERIS_TYPE":0,"CLASSIFICATION_TYPE":"U","NORAD_CAT_ID":65366,"ELEMENT_SET_NO":999,"REV_AT_EPOCH":485,"BSTAR":0.0033956708,"MEAN_MOTION_DOT":0.00138042,"MEAN_MOTION_DDOT":0},{"OBJECT_NAME":"STARLINK-34946","OBJECT_ID":"2025-190S","EPOCH":"2025-10-01T06:00:02.999808","MEAN_MOTION":15.43749551,"ECCENTRICITY":0.00010823,"INCLINATION":53.1594,"RA_OF_ASC_NODE":189.9484,"ARG_OF_PERICENTER":79.1612,"MEAN_ANOMALY":57.15,"EPHEMERIS_TYPE":0,"CLASSIFICATION_TYPE":"U","NORAD_CAT_ID":65367,"ELEMENT_SET_NO":999,"REV_AT_EPOCH":583,"BSTAR":-0.038203799,"MEAN_MOTION_DOT":-0.0157744,"MEAN_MOTION_DDOT":0},{"OBJECT_NAME":"STARLINK-34259","OBJECT_ID":"2025-190T","EPOCH":"2025-10-01T06:29:45.545856","MEAN_MOTION":15.39664081,"ECCENTRICITY":0.00013308,"INCLINATION":53.1584,"RA_OF_ASC_NODE":190.3498,"ARG_OF_PERICENTER":73.5979,"MEAN_ANOMALY":286.5173,"EPHEMERIS_TYPE":0,"CLASSIFICATION_TYPE":"U","NORAD_CAT_ID":65368,"ELEMENT_SET_NO":999,"REV_AT_EPOCH":532,"BSTAR":0.0033157858,"MEAN_MOTION_DOT":0.00134794,"MEAN_MOTION_DDOT":0},{"OBJECT_NAME":"STARLINK-34913","OBJECT_ID":"2025-190U","EPOCH":"2025-10-01T06:23:04.555680","MEAN_MOTION":15.39656685,"ECCENTRICITY":0.00010229,"INCLINATION":53.1587,"RA_OF_ASC_NODE":190.321,"ARG_OF_PERICENTER":59.5577,"MEAN_ANOMALY":300.5529,"EPHEMERIS_TYPE":0,"CLASSIFICATION_TYPE":"U","NORAD_CAT_ID":65369,"ELEMENT_SET_NO":999,"REV_AT_EPOCH":532,"BSTAR":0.0035452195,"MEAN_MOTION_DOT":0.00144295,"MEAN_MOTION_DDOT":0},{"OBJECT_NAME":"STARLINK-34870","OBJECT_ID":"2025-190V","EPOCH":"2025-10-01T03:42:52.290432","MEAN_MOTION":15.39639205,"ECCENTRICITY":0.00011892,"INCLINATION":53.1602,"RA_OF_ASC_NODE":191.0496,"ARG_OF_PERICENTER":111.8031,"MEAN_ANOMALY":248.3101,"EPHEMERIS_TYPE":0,"CLASSIFICATION_TYPE":"U","NORAD_CAT_ID":65370,"ELEMENT_SET_NO":999,"REV_AT_EPOCH":483,"BSTAR":0.002076602,"MEAN_MOTION_DOT":0.00083632,"MEAN_MOTION_DDOT":0},{"OBJECT_NAME":"STARLINK-34869","OBJECT_ID":"2025-190W","EPOCH":"2025-10-01T06:00:02.999808","MEAN_MOTION":15.39561478,"ECCENTRICITY":0.0001339,"INCLINATION":53.1587,"RA_OF_ASC_NODE":190.3456,"ARG_OF_PERICENTER":74.1434,"MEAN_ANOMALY":223.0781,"EPHEMERIS_TYPE":0,"CLASSIFICATION_TYPE":"U","NORAD_CAT_ID":65371,"ELEMENT_SET_NO":999,"REV_AT_EPOCH":490,"BSTAR":0.0011755185,"MEAN_MOTION_DOT":0.00046819,"MEAN_MOTION_DDOT":0},{"OBJECT_NAME":"STARLINK-34903","OBJECT_ID":"2025-190X","EPOCH":"2025-10-01T04:22:50.893536","MEAN_MOTION":15.39613191,"ECCENTRICITY":0.00013391,"INCLINATION":53.1593,"RA_OF_ASC_NODE":190.501,"ARG_OF_PERICENTER":78.8462,"MEAN_ANOMALY":281.2694,"EPHEMERIS_TYPE":0,"CLASSIFICATION_TYPE":"U","NORAD_CAT_ID":65372,"ELEMENT_SET_NO":999,"REV_AT_EPOCH":531,"BSTAR":0.0020752214,"MEAN_MOTION_DOT":0.00083503,"MEAN_MOTION_DDOT":0},{"OBJECT_NAME":"STARLINK-34891","OBJECT_ID":"2025-190Y","EPOCH":"2025-10-01T06:00:02.999808","MEAN_MOTION":15.4159699,"ECCENTRICITY":0.00011162,"INCLINATION":53.1593,"RA_OF_ASC_NODE":189.8263,"ARG_OF_PERICENTER":94.761,"MEAN_ANOMALY":99.7052,"EPHEMERIS_TYPE":0,"CLASSIFICATION_TYPE":"U","NORAD_CAT_ID":65373,"ELEMENT_SET_NO":999,"REV_AT_EPOCH":484,"BSTAR":-0.037163228,"MEAN_MOTION_DOT":-0.01440357,"MEAN_MOTION_DDOT":0},{"OBJECT_NAME":"STARLINK-34900","OBJECT_ID":"2025-190Z","EPOCH":"2025-10-01T06:00:02.999808","MEAN_MOTION":15.39502353,"ECCENTRICITY":7.175e-5,"INCLINATION":53.159,"RA_OF_ASC_NODE":190.2372,"ARG_OF_PERICENTER":103.4857,"MEAN_ANOMALY":245.2686,"EPHEMERIS_TYPE":0,"CLASSIFICATION_TYPE":"U","NORAD_CAT_ID":65374,"ELEMENT_SET_NO":999,"REV_AT_EPOCH":484,"BSTAR":0.0029919011,"MEAN_MOTION_DOT":0.00120718,"MEAN_MOTION_DDOT":0},{"OBJECT_NAME":"STARLINK-34305","OBJECT_ID":"2025-190AA","EPOCH":"2025-10-01T06:00:02.999808","MEAN_MOTION":15.39607522,"ECCENTRICITY":0.00013686,"INCLINATION":53.1594,"RA_OF_ASC_NODE":189.8742,"ARG_OF_PERICENTER":93.2513,"MEAN_ANOMALY":77.5834,"EPHEMERIS_TYPE":0,"CLASSIFICATION_TYPE":"U","NORAD_CAT_ID":65375,"ELEMENT_SET_NO":999,"REV_AT_EPOCH":584,"BSTAR":-0.00059923253,"MEAN_MOTION_DOT":-0.00024282,"MEAN_MOTION_DDOT":0},{"OBJECT_NAME":"STARLINK-34249","OBJECT_ID":"2025-190AB","EPOCH":"2025-10-01T06:00:02.999808","MEAN_MOTION":15.43666188,"ECCENTRICITY":0.00012621,"INCLINATION":53.1581,"RA_OF_ASC_NODE":189.7883,"ARG_OF_PERICENTER":93.9824,"MEAN_ANOMALY":119.9311,"EPHEMERIS_TYPE":0,"CLASSIFICATION_TYPE":"U","NORAD_CAT_ID":65376,"ELEMENT_SET_NO":999,"REV_AT_EPOCH":584,"BSTAR":-0.038245235,"MEAN_MOTION_DOT":-0.01575014,"MEAN_MOTION_DDOT":0},{"OBJECT_NAME":"STARLINK-34879","OBJECT_ID":"2025-190AC","EPOCH":"2025-10-01T04:16:09.721056","MEAN_MOTION":15.39626128,"ECCENTRICITY":0.0001147,"INCLINATION":53.1602,"RA_OF_ASC_NODE":190.4733,"ARG_OF_PERICENTER":102.3468,"MEAN_ANOMALY":257.7665,"EPHEMERIS_TYPE":0,"CLASSIFICATION_TYPE":"U","NORAD_CAT_ID":65377,"ELEMENT_SET_NO":999,"REV_AT_EPOCH":531,"BSTAR":0.0032199314,"MEAN_MOTION_DOT":0.0013065,"MEAN_MOTION_DDOT":0},{"OBJECT_NAME":"STARLINK-34912","OBJECT_ID":"2025-190AD","EPOCH":"2025-10-01T05:42:56.339712","MEAN_MOTION":15.39676933,"ECCENTRICITY":0.00011675,"INCLINATION":53.1594,"RA_OF_ASC_NODE":190.1354,"ARG_OF_PERICENTER":52.3258,"MEAN_ANOMALY":307.7852,"EPHEMERIS_TYPE":0,"CLASSIFICATION_TYPE":"U","NORAD_CAT_ID":65378,"ELEMENT_SET_NO":999,"REV_AT_EPOCH":532,"BSTAR":0.003309062,"MEAN_MOTION_DOT":0.00134573,"MEAN_MOTION_DDOT":0},{"OBJECT_NAME":"STARLINK-34985","OBJECT_ID":"2025-191A","EPOCH":"2025-10-01T02:14:56.743584","MEAN_MOTION":15.39340526,"ECCENTRICITY":0.00015526,"INCLINATION":97.6029,"RA_OF_ASC_NODE":143.4152,"ARG_OF_PERICENTER":75.8422,"MEAN_ANOMALY":284.2996,"EPHEMERIS_TYPE":0,"CLASSIFICATION_TYPE":"U","NORAD_CAT_ID":65379,"ELEMENT_SET_NO":999,"REV_AT_EPOCH":620,"BSTAR":0.0024499351,"MEAN_MOTION_DOT":0.00096671,"MEAN_MOTION_DDOT":0},{"OBJECT_NAME":"STARLINK-35051","OBJECT_ID":"2025-191B","EPOCH":"2025-10-01T03:02:15.986688","MEAN_MOTION":15.39340872,"ECCENTRICITY":0.00023946,"INCLINATION":97.6025,"RA_OF_ASC_NODE":143.5262,"ARG_OF_PERICENTER":153.3512,"MEAN_ANOMALY":206.7856,"EPHEMERIS_TYPE":0,"CLASSIFICATION_TYPE":"U","NORAD_CAT_ID":65380,"ELEMENT_SET_NO":999,"REV_AT_EPOCH":622,"BSTAR":0.0018644145,"MEAN_MOTION_DOT":0.00073326,"MEAN_MOTION_DDOT":0},{"OBJECT_NAME":"STARLINK-35028","OBJECT_ID":"2025-191C","EPOCH":"2025-10-01T06:00:02.999808","MEAN_MOTION":15.39297241,"ECCENTRICITY":0.00018981,"INCLINATION":97.6037,"RA_OF_ASC_NODE":143.6962,"ARG_OF_PERICENTER":110.008,"MEAN_ANOMALY":303.8117,"EPHEMERIS_TYPE":0,"CLASSIFICATION_TYPE":"U","NORAD_CAT_ID":65381,"ELEMENT_SET_NO":999,"REV_AT_EPOCH":607,"BSTAR":0.0015116494,"MEAN_MOTION_DOT":0.0005924,"MEAN_MOTION_DDOT":0}]
